{
    "links": {
        "self": "http://www.neowsapp.com/rest/v1/neo/3277999?api_key=iIulBulltgU6a56xZRHN4H3l9WmuAYTsLGpBGhQ2"
    },
    "id": "3277999",
    "neo_reference_id": "3277999",
    "name": "(2005 JB46)",
    "designation": "2005 JB46",
    "nasa_jpl_url": "http://ssd.jpl.nasa.gov/sbdb.cgi?sstr=3277999",
    "absolute_magnitude_h": 24.4,
    "estimated_diameter": {
        "kilometers": {
            "estimated_diameter_min": 0.0350392641,
            "estimated_diameter_max": 0.0783501764
        },
        "meters": {
            "estimated_diameter_min": 35.0392641108,
            "estimated_diameter_max": 78.3501764334
        },
        "miles": {
            "estimated_diameter_min": 0.0217723826,
            "estimated_diameter_max": 0.0486845275
        },
        "feet": {
            "estimated_diameter_min": 114.9582192654,
            "estimated_diameter_max": 257.0543928497
        }
    },
    "is_potentially_hazardous_asteroid": false,
    "close_approach_data": [
        {
            "close_approach_date": "2005-05-09",
            "close_approach_date_full": "2005-May-09 00:17",
            "epoch_date_close_approach": 1115597820000,
            "relative_velocity": {
                "kilometers_per_second": "8.0395373446",
                "kilometers_per_hour": "28942.3344407058",
                "miles_per_hour": "17983.6410862264"
            },
            "miss_distance": {
                "astronomical": "0.0340326068",
                "lunar": "13.2386840452",
                "kilometers": "5091205.487827516",
                "miles": "3163528.3953750808"
            },
            "orbiting_body": "Earth"
        }
    ],
    "orbital_data": {
        "orbit_id": "6",
        "orbit_determination_date": "2017-04-06 09:11:00",
        "first_observation_date": "2005-05-08",
        "last_observation_date": "2005-05-11",
        "data_arc_in_days": 3,
        "observations_used": 11,
        "orbit_uncertainty": "9",
        "minimum_orbit_intersection": ".0327837",
        "jupiter_tisserand_invariant": "4.856",
        "epoch_osculation": "2453500.5",
        "eccentricity": ".2191251988469106",
        "semi_major_axis": "1.33497249150861",
        "inclination": "14.06837314164208",
        "ascending_node_longitude": "48.789045270392",
        "orbital_period": "563.38710428269",
        "perihelion_distance": "1.04244637885163",
        "perihelion_argument": "179.2951015646539",
        "aphelion_distance": "1.627498604165589",
        "perihelion_time": "2453498.709242364280",
        "mean_anomaly": "1.144280271874529",
        "mean_motion": ".6389922617386771",
        "equinox": "J2000",
        "orbit_class": {
            "orbit_class_type": "AMO",
            "orbit_class_description": "Near-Earth asteroid orbits similar to that of 1221 Amor",
            "orbit_class_range": "1.017 AU < q (perihelion) < 1.3 AU"
        }
    },
    "is_sentry_object": false
}